[{"OBJECT_NAME":"STARLINK-4253","OBJECT_ID":"2022-076U","EPOCH":"2025-07-27T19:02:21.684192","MEAN_MOTION":15.08837126,"ECCENTRICITY":0.0001344,"INCLINATION":53.2193,"RA_OF_ASC_NODE":23.7183,"ARG_OF_PERICENTER":79.9813,"MEAN_ANOMALY":280.1331,"EPHEMERIS_TYPE":0,"CLASSIFICATION_TYPE":"U","NORAD_CAT_ID":53004,"ELEMENT_SET_NO":999,"REV_AT_EPOCH":16936,"BSTAR":6.4549e-6,"MEAN_MOTION_DOT":-1.85e-6,"MEAN_MOTION_DDOT":0},{"OBJECT_NAME":"STARLINK-4288","OBJECT_ID":"2022-076V","EPOCH":"2025-07-27T18:35:51.597600","MEAN_MOTION":15.08840094,"ECCENTRICITY":0.0001366,"INCLINATION":53.2187,"RA_OF_ASC_NODE":23.8028,"ARG_OF_PERICENTER":84.9324,"MEAN_ANOMALY":275.1824,"EPHEMERIS_TYPE":0,"CLASSIFICATION_TYPE":"U","NORAD_CAT_ID":53005,"ELEMENT_SET_NO":999,"REV_AT_EPOCH":16889,"BSTAR":1.7515e-6,"MEAN_MOTION_DOT":-2.6e-6,"MEAN_MOTION_DDOT":0},{"OBJECT_NAME":"STARLINK-4290","OBJECT_ID":"2022-076W","EPOCH":"2025-07-27T18:46:27.373728","MEAN_MOTION":15.08839635,"ECCENTRICITY":0.0001253,"INCLINATION":53.2187,"RA_OF_ASC_NODE":23.7702,"ARG_OF_PERICENTER":90.0597,"MEAN_ANOMALY":270.0539,"EPHEMERIS_TYPE":0,"CLASSIFICATION_TYPE":"U","NORAD_CAT_ID":53006,"ELEMENT_SET_NO":999,"REV_AT_EPOCH":16889,"BSTAR":5.2112e-5,"MEAN_MOTION_DOT":5.42e-6,"MEAN_MOTION_DDOT":0},{"OBJECT_NAME":"STARLINK-4215","OBJECT_ID":"2022-076X","EPOCH":"2025-07-27T18:25:15.800736","MEAN_MOTION":15.08838738,"ECCENTRICITY":0.0001368,"INCLINATION":53.2196,"RA_OF_ASC_NODE":23.8377,"ARG_OF_PERICENTER":87.5479,"MEAN_ANOMALY":272.5669,"EPHEMERIS_TYPE":0,"CLASSIFICATION_TYPE":"U","NORAD_CAT_ID":53007,"ELEMENT_SET_NO":999,"REV_AT_EPOCH":16889,"BSTAR":1.7529e-5,"MEAN_MOTION_DOT":-9.0e-8,"MEAN_MOTION_DDOT":0},{"OBJECT_NAME":"STARLINK-4275","OBJECT_ID":"2022-076Y","EPOCH":"2025-07-27T18:30:33.996384","MEAN_MOTION":15.08835949,"ECCENTRICITY":0.0001675,"INCLINATION":53.2184,"RA_OF_ASC_NODE":23.8108,"ARG_OF_PERICENTER":90.3262,"MEAN_ANOMALY":269.7923,"EPHEMERIS_TYPE":0,"CLASSIFICATION_TYPE":"U","NORAD_CAT_ID":53008,"ELEMENT_SET_NO":999,"REV_AT_EPOCH":16889,"BSTAR":-5.4917e-5,"MEAN_MOTION_DOT":-1.162e-5,"MEAN_MOTION_DDOT":0},{"OBJECT_NAME":"STARLINK-4277","OBJECT_ID":"2022-076Z","EPOCH":"2025-07-27T18:05:23.152416","MEAN_MOTION":15.08840197,"ECCENTRICITY":0.0001208,"INCLINATION":53.2189,"RA_OF_ASC_NODE":13.8978,"ARG_OF_PERICENTER":88.9461,"MEAN_ANOMALY":271.1669,"EPHEMERIS_TYPE":0,"CLASSIFICATION_TYPE":"U","NORAD_CAT_ID":53009,"ELEMENT_SET_NO":999,"REV_AT_EPOCH":16902,"BSTAR":0.00010368,"MEAN_MOTION_DOT":1.363e-5,"MEAN_MOTION_DDOT":0},{"OBJECT_NAME":"STARLINK-4263","OBJECT_ID":"2022-076AA","EPOCH":"2025-07-27T17:53:25.245312","MEAN_MOTION":15.08842335,"ECCENTRICITY":0.0001269,"INCLINATION":53.2181,"RA_OF_ASC_NODE":23.6632,"ARG_OF_PERICENTER":88.4084,"MEAN_ANOMALY":271.7053,"EPHEMERIS_TYPE":0,"CLASSIFICATION_TYPE":"U","NORAD_CAT_ID":53010,"ELEMENT_SET_NO":999,"REV_AT_EPOCH":16889,"BSTAR":3.8522e-5,"MEAN_MOTION_DOT":3.25e-6,"MEAN_MOTION_DDOT":0},{"OBJECT_NAME":"STARLINK-4265","OBJECT_ID":"2022-076AB","EPOCH":"2025-07-27T21:10:52.058208","MEAN_MOTION":15.08835847,"ECCENTRICITY":0.0001264,"INCLINATION":53.2185,"RA_OF_ASC_NODE":13.319,"ARG_OF_PERICENTER":84.7198,"MEAN_ANOMALY":275.3939,"EPHEMERIS_TYPE":0,"CLASSIFICATION_TYPE":"U","NORAD_CAT_ID":53011,"ELEMENT_SET_NO":999,"REV_AT_EPOCH":16904,"BSTAR":4.4256e-5,"MEAN_MOTION_DOT":4.16e-6,"MEAN_MOTION_DDOT":0},{"OBJECT_NAME":"STARLINK-4271","OBJECT_ID":"2022-076AC","EPOCH":"2025-07-27T18:19:57.592992","MEAN_MOTION":15.0884092,"ECCENTRICITY":0.0001242,"INCLINATION":53.2181,"RA_OF_ASC_NODE":23.8521,"ARG_OF_PERICENTER":83.2205,"MEAN_ANOMALY":276.8929,"EPHEMERIS_TYPE":0,"CLASSIFICATION_TYPE":"U","NORAD_CAT_ID":53012,"ELEMENT_SET_NO":999,"REV_AT_EPOCH":16889,"BSTAR":2.9849e-5,"MEAN_MOTION_DOT":1.87e-6,"MEAN_MOTION_DDOT":0},{"OBJECT_NAME":"STARLINK-4177","OBJECT_ID":"2022-076AD","EPOCH":"2025-07-27T21:00:15.863040","MEAN_MOTION":15.0883943,"ECCENTRICITY":0.0001171,"INCLINATION":53.2193,"RA_OF_ASC_NODE":13.3538,"ARG_OF_PERICENTER":85.5475,"MEAN_ANOMALY":274.5651,"EPHEMERIS_TYPE":0,"CLASSIFICATION_TYPE":"U","NORAD_CAT_ID":53013,"ELEMENT_SET_NO":999,"REV_AT_EPOCH":16904,"BSTAR":-1.5734e-5,"MEAN_MOTION_DOT":-5.38e-6,"MEAN_MOTION_DDOT":0},{"OBJECT_NAME":"STARLINK-4183","OBJECT_ID":"2022-076AE","EPOCH":"2025-07-28T00:32:14.019936","MEAN_MOTION":15.08838817,"ECCENTRICITY":0.0001195,"INCLINATION":53.2191,"RA_OF_ASC_NODE":12.6929,"ARG_OF_PERICENTER":90.041,"MEAN_ANOMALY":270.0719,"EPHEMERIS_TYPE":0,"CLASSIFICATION_TYPE":"U","NORAD_CAT_ID":53014,"ELEMENT_SET_NO":999,"REV_AT_EPOCH":16953,"BSTAR":3.6081e-5,"MEAN_MOTION_DOT":2.86e-6,"MEAN_MOTION_DDOT":0},{"OBJECT_NAME":"STARLINK-4262","OBJECT_ID":"2022-076AF","EPOCH":"2025-07-27T20:49:39.913248","MEAN_MOTION":15.08840064,"ECCENTRICITY":0.000134,"INCLINATION":53.2202,"RA_OF_ASC_NODE":13.3846,"ARG_OF_PERICENTER":93.8825,"MEAN_ANOMALY":266.232,"EPHEMERIS_TYPE":0,"CLASSIFICATION_TYPE":"U","NORAD_CAT_ID":53015,"ELEMENT_SET_NO":999,"REV_AT_EPOCH":16904,"BSTAR":1.6005e-5,"MEAN_MOTION_DOT":-3.3e-7,"MEAN_MOTION_DDOT":0},{"OBJECT_NAME":"STARLINK-4283","OBJECT_ID":"2022-076AG","EPOCH":"2025-07-27T17:54:47.662272","MEAN_MOTION":15.0883802,"ECCENTRICITY":0.0001345,"INCLINATION":53.2196,"RA_OF_ASC_NODE":13.9326,"ARG_OF_PERICENTER":89.571,"MEAN_ANOMALY":270.5436,"EPHEMERIS_TYPE":0,"CLASSIFICATION_TYPE":"U","NORAD_CAT_ID":53016,"ELEMENT_SET_NO":999,"REV_AT_EPOCH":16902,"BSTAR":5.8366e-6,"MEAN_MOTION_DOT":-1.95e-6,"MEAN_MOTION_DDOT":0},{"OBJECT_NAME":"STARLINK-4281","OBJECT_ID":"2022-076AH","EPOCH":"2025-07-28T01:30:31.243968","MEAN_MOTION":15.08841826,"ECCENTRICITY":0.0001285,"INCLINATION":53.2201,"RA_OF_ASC_NODE":12.5109,"ARG_OF_PERICENTER":83.7194,"MEAN_ANOMALY":276.3944,"EPHEMERIS_TYPE":0,"CLASSIFICATION_TYPE":"U","NORAD_CAT_ID":53017,"ELEMENT_SET_NO":999,"REV_AT_EPOCH":16954,"BSTAR":4.5949e-5,"MEAN_MOTION_DOT":4.44e-6,"MEAN_MOTION_DDOT":0},{"OBJECT_NAME":"STARLINK-4279","OBJECT_ID":"2022-076AJ","EPOCH":"2025-07-27T18:26:37.999968","MEAN_MOTION":15.08840534,"ECCENTRICITY":0.0001232,"INCLINATION":53.219,"RA_OF_ASC_NODE":14.0895,"ARG_OF_PERICENTER":87.6909,"MEAN_ANOMALY":272.4224,"EPHEMERIS_TYPE":0,"CLASSIFICATION_TYPE":"U","NORAD_CAT_ID":53018,"ELEMENT_SET_NO":999,"REV_AT_EPOCH":16902,"BSTAR":4.7023e-5,"MEAN_MOTION_DOT":4.61e-6,"MEAN_MOTION_DDOT":0},{"OBJECT_NAME":"STARLINK-4282","OBJECT_ID":"2022-076AK","EPOCH":"2025-07-27T22:09:09.515520","MEAN_MOTION":15.08843645,"ECCENTRICITY":0.0001262,"INCLINATION":53.219,"RA_OF_ASC_NODE":13.1364,"ARG_OF_PERICENTER":88.4538,"MEAN_ANOMALY":271.6599,"EPHEMERIS_TYPE":0,"CLASSIFICATION_TYPE":"U","NORAD_CAT_ID":53019,"ELEMENT_SET_NO":999,"REV_AT_EPOCH":16905,"BSTAR":0.0001566,"MEAN_MOTION_DOT":2.206e-5,"MEAN_MOTION_DDOT":0},{"OBJECT_NAME":"STARLINK-4287","OBJECT_ID":"2022-076AL","EPOCH":"2025-07-27T20:54:57.700224","MEAN_MOTION":15.08841318,"ECCENTRICITY":0.0001285,"INCLINATION":53.2195,"RA_OF_ASC_NODE":13.3697,"ARG_OF_PERICENTER":86.7672,"MEAN_ANOMALY":273.3467,"EPHEMERIS_TYPE":0,"CLASSIFICATION_TYPE":"U","NORAD_CAT_ID":53020,"ELEMENT_SET_NO":999,"REV_AT_EPOCH":16951,"BSTAR":5.4986e-7,"MEAN_MOTION_DOT":-2.79e-6,"MEAN_MOTION_DDOT":0},{"OBJECT_NAME":"STARLINK-4216","OBJECT_ID":"2022-076AN","EPOCH":"2025-07-27T20:39:04.043808","MEAN_MOTION":15.08840167,"ECCENTRICITY":0.0001251,"INCLINATION":53.2204,"RA_OF_ASC_NODE":13.4165,"ARG_OF_PERICENTER":96.1355,"MEAN_ANOMALY":263.978,"EPHEMERIS_TYPE":0,"CLASSIFICATION_TYPE":"U","NORAD_CAT_ID":53022,"ELEMENT_SET_NO":999,"REV_AT_EPOCH":16904,"BSTAR":5.7005e-8,"MEAN_MOTION_DOT":-2.87e-6,"MEAN_MOTION_DDOT":0},{"OBJECT_NAME":"STARLINK-4284","OBJECT_ID":"2022-076AP","EPOCH":"2025-07-28T04:09:30.147840","MEAN_MOTION":15.088393,"ECCENTRICITY":0.0001368,"INCLINATION":53.2193,"RA_OF_ASC_NODE":12.003,"ARG_OF_PERICENTER":86.9771,"MEAN_ANOMALY":273.1378,"EPHEMERIS_TYPE":0,"CLASSIFICATION_TYPE":"U","NORAD_CAT_ID":53023,"ELEMENT_SET_NO":999,"REV_AT_EPOCH":16956,"BSTAR":3.5631e-5,"MEAN_MOTION_DOT":2.79e-6,"MEAN_MOTION_DDOT":0},{"OBJECT_NAME":"STARLINK-4289","OBJECT_ID":"2022-076AQ","EPOCH":"2025-07-28T04:14:48.019488","MEAN_MOTION":15.0884143,"ECCENTRICITY":0.0001345,"INCLINATION":53.2194,"RA_OF_ASC_NODE":11.9965,"ARG_OF_PERICENTER":80.7062,"MEAN_ANOMALY":279.4082,"EPHEMERIS_TYPE":0,"CLASSIFICATION_TYPE":"U","NORAD_CAT_ID":53024,"ELEMENT_SET_NO":999,"REV_AT_EPOCH":16956,"BSTAR":4.4588e-5,"MEAN_MOTION_DOT":4.22e-6,"MEAN_MOTION_DDOT":0},{"OBJECT_NAME":"STARLINK-4218","OBJECT_ID":"2022-076AR","EPOCH":"2025-07-27T18:31:53.223456","MEAN_MOTION":15.0883985,"ECCENTRICITY":0.0001272,"INCLINATION":53.219,"RA_OF_ASC_NODE":13.8128,"ARG_OF_PERICENTER":94.3441,"MEAN_ANOMALY":265.7696,"EPHEMERIS_TYPE":0,"CLASSIFICATION_TYPE":"U","NORAD_CAT_ID":53025,"ELEMENT_SET_NO":999,"REV_AT_EPOCH":16903,"BSTAR":5.939e-5,"MEAN_MOTION_DOT":6.57e-6,"MEAN_MOTION_DDOT":0},{"OBJECT_NAME":"STARLINK-4119","OBJECT_ID":"2022-076AS","EPOCH":"2025-07-27T18:38:33.630432","MEAN_MOTION":15.08837793,"ECCENTRICITY":0.0001245,"INCLINATION":53.2187,"RA_OF_ASC_NODE":13.6868,"ARG_OF_PERICENTER":86.4179,"MEAN_ANOMALY":273.6955,"EPHEMERIS_TYPE":0,"CLASSIFICATION_TYPE":"U","NORAD_CAT_ID":53026,"ELEMENT_SET_NO":999,"REV_AT_EPOCH":16903,"BSTAR":0.00017649,"MEAN_MOTION_DOT":2.522e-5,"MEAN_MOTION_DDOT":0},{"OBJECT_NAME":"STARLINK-4158","OBJECT_ID":"2022-076AT","EPOCH":"2025-07-27T18:15:59.738976","MEAN_MOTION":15.08846829,"ECCENTRICITY":0.0001314,"INCLINATION":53.2197,"RA_OF_ASC_NODE":13.8669,"ARG_OF_PERICENTER":108.5446,"MEAN_ANOMALY":251.5689,"EPHEMERIS_TYPE":0,"CLASSIFICATION_TYPE":"U","NORAD_CAT_ID":53027,"ELEMENT_SET_NO":999,"REV_AT_EPOCH":16903,"BSTAR":-0.00022115,"MEAN_MOTION_DOT":-3.806e-5,"MEAN_MOTION_DDOT":0}]
